ONEWEB-0340             
1 49206U 21083W   26168.96816972  .00000004  00000+0 -22024-4 0  9994
2 49206  87.9171 335.2998 0001980  91.4067 268.7292 13.18685284230074
ONEWEB-0341             
1 49207U 21083X   26168.97491509 -.00000035  00000+0 -12093-3 0  9990
2 49207  87.9165 335.3016 0002272 101.7573 258.3814 13.18685860230099
ONEWEB-0342             
1 49208U 21083Y   26168.80541492  .00000036  00000+0  57217-4 0  9997
2 49208  87.9195 274.3134 0001951 103.5580 256.5771 13.20771183236867
ONEWEB-0343             
1 49209U 21083Z   26168.98334816 -.00000052  00000+0 -16515-3 0  9992
2 49209  87.9166 335.2987 0001645 105.4750 254.6564 13.18686091230143
ONEWEB-0344             
1 49210U 21083AA  26168.95779064  .00000230  00000+0  59597-3 0  9992
2 49210  87.8944 320.0868 0002166 102.6825 257.4547 13.13471744230996
ONEWEB-0345             
1 49211U 21083AB  26168.94933215  .00000307  00000+0  80547-3 0  9996
2 49211  87.8963 320.0696 0002048 102.2350 257.9008 13.13470628231005
ONEWEB-0346             
1 49212U 21083AC  26168.97997406  .00000005  00000+0 -20340-4 0  9994
2 49212  87.9161 335.2995 0002298  79.7046 280.4345 13.18685551230084
ONEWEB-0348             
1 49213U 21083AD  26168.79531318  .00000062  00000+0  11975-3 0  9996
2 49213  87.9196 274.3194 0002474  95.9862 264.1554 13.20770769236894
ONEWEB-0350             
1 49214U 21083AE  26168.96629995  .00000027  00000+0  39760-4 0  9999
2 49214  87.8957 320.0708 0002110  99.3279 260.8088 13.12942631231032
ONEWEB-0351             
1 49215U 21083AF  26168.78843385  .00000063  00000+0  12414-3 0  9997
2 49215  87.9197 274.3195 0002076 125.5465 234.5863 13.20770762236858
ONEWEB-0352             
1 49216U 21083AG  26168.93918353  .00000259  00000+0  67385-3 0  9997
2 49216  87.8954 320.0828 0001670 109.7823 250.3486 13.13470761231122
ONEWEB-0354             
1 49217U 21083AH  26169.27005287  .00000059  00000+0  11201-3 0  9993
2 49217  87.9197 274.2223 0002406 100.0977 260.0428 13.20772899236959
ONEWEB-0355             
1 49218U 21083AJ  26168.96810044 -.00000064  00000+0 -20884-3 0  9999
2 49218  87.8951 320.0780 0001895 103.4532 256.6808 13.13469190231003
ONEWEB-0357             
1 49219U 21083AK  26168.81214542  .00000056  00000+0  10499-3 0  9995
2 49219  87.9196 274.3078 0001945 106.4919 253.6429 13.20772861236893
ONEWEB-0332             
1 49279U 21090A   26168.82757019 -.00000233  00000+0 -66174-3 0  9991
2 49279  87.8964 289.5812 0001713 102.0627 258.0694 13.14501863227669
ONEWEB-0347             
1 49280U 21090B   26168.80204861  .00000010  00000+0 -83133-5 0  9991
2 49280  87.9196 274.3179 0001683 101.0662 259.0661 13.20771216231120
