[{"OBJECT_NAME":"ONEWEB-0340","OBJECT_ID":"2021-083W","EPOCH":"2026-06-17T23:14:09.863808","MEAN_MOTION":13.18685284,"ECCENTRICITY":0.000198,"INCLINATION":87.9171,"RA_OF_ASC_NODE":335.2998,"ARG_OF_PERICENTER":91.4067,"MEAN_ANOMALY":268.7292,"EPHEMERIS_TYPE":0,"CLASSIFICATION_TYPE":"U","NORAD_CAT_ID":49206,"ELEMENT_SET_NO":999,"REV_AT_EPOCH":23007,"BSTAR":-2.2024e-05,"MEAN_MOTION_DOT":4e-08,"MEAN_MOTION_DDOT":0.0},{"OBJECT_NAME":"ONEWEB-0341","OBJECT_ID":"2021-083X","EPOCH":"2026-06-17T23:23:52.663776","MEAN_MOTION":13.1868586,"ECCENTRICITY":0.0002272,"INCLINATION":87.9165,"RA_OF_ASC_NODE":335.3016,"ARG_OF_PERICENTER":101.7573,"MEAN_ANOMALY":258.3814,"EPHEMERIS_TYPE":0,"CLASSIFICATION_TYPE":"U","NORAD_CAT_ID":49207,"ELEMENT_SET_NO":999,"REV_AT_EPOCH":23009,"BSTAR":-0.00012093,"MEAN_MOTION_DOT":-3.5e-07,"MEAN_MOTION_DDOT":0.0},{"OBJECT_NAME":"ONEWEB-0342","OBJECT_ID":"2021-083Y","EPOCH":"2026-06-17T19:19:47.849088","MEAN_MOTION":13.20771183,"ECCENTRICITY":0.0001951,"INCLINATION":87.9195,"RA_OF_ASC_NODE":274.3134,"ARG_OF_PERICENTER":103.558,"MEAN_ANOMALY":256.5771,"EPHEMERIS_TYPE":0,"CLASSIFICATION_TYPE":"U","NORAD_CAT_ID":49208,"ELEMENT_SET_NO":999,"REV_AT_EPOCH":23686,"BSTAR":5.7217e-05,"MEAN_MOTION_DOT":3.6e-07,"MEAN_MOTION_DDOT":0.0},{"OBJECT_NAME":"ONEWEB-0343","OBJECT_ID":"2021-083Z","EPOCH":"2026-06-17T23:36:01.281024","MEAN_MOTION":13.18686091,"ECCENTRICITY":0.0001645,"INCLINATION":87.9166,"RA_OF_ASC_NODE":335.2987,"ARG_OF_PERICENTER":105.475,"MEAN_ANOMALY":254.6564,"EPHEMERIS_TYPE":0,"CLASSIFICATION_TYPE":"U","NORAD_CAT_ID":49209,"ELEMENT_SET_NO":999,"REV_AT_EPOCH":23014,"BSTAR":-0.00016515,"MEAN_MOTION_DOT":-5.2e-07,"MEAN_MOTION_DDOT":0.0},{"OBJECT_NAME":"ONEWEB-0344","OBJECT_ID":"2021-083AA","EPOCH":"2026-06-17T22:59:13.111296","MEAN_MOTION":13.13471744,"ECCENTRICITY":0.0002166,"INCLINATION":87.8944,"RA_OF_ASC_NODE":320.0868,"ARG_OF_PERICENTER":102.6825,"MEAN_ANOMALY":257.4547,"EPHEMERIS_TYPE":0,"CLASSIFICATION_TYPE":"U","NORAD_CAT_ID":49210,"ELEMENT_SET_NO":999,"REV_AT_EPOCH":23099,"BSTAR":0.00059597,"MEAN_MOTION_DOT":2.3e-06,"MEAN_MOTION_DDOT":0.0},{"OBJECT_NAME":"ONEWEB-0345","OBJECT_ID":"2021-083AB","EPOCH":"2026-06-17T22:47:02.297760","MEAN_MOTION":13.13470628,"ECCENTRICITY":0.0002048,"INCLINATION":87.8963,"RA_OF_ASC_NODE":320.0696,"ARG_OF_PERICENTER":102.235,"MEAN_ANOMALY":257.9008,"EPHEMERIS_TYPE":0,"CLASSIFICATION_TYPE":"U","NORAD_CAT_ID":49211,"ELEMENT_SET_NO":999,"REV_AT_EPOCH":23100,"BSTAR":0.0008054700000000001,"MEAN_MOTION_DOT":3.07e-06,"MEAN_MOTION_DDOT":0.0},{"OBJECT_NAME":"ONEWEB-0346","OBJECT_ID":"2021-083AC","EPOCH":"2026-06-17T23:31:09.758784","MEAN_MOTION":13.18685551,"ECCENTRICITY":0.0002298,"INCLINATION":87.9161,"RA_OF_ASC_NODE":335.2995,"ARG_OF_PERICENTER":79.7046,"MEAN_ANOMALY":280.4345,"EPHEMERIS_TYPE":0,"CLASSIFICATION_TYPE":"U","NORAD_CAT_ID":49212,"ELEMENT_SET_NO":999,"REV_AT_EPOCH":23008,"BSTAR":-2.0340000000000002e-05,"MEAN_MOTION_DOT":5e-08,"MEAN_MOTION_DDOT":0.0},{"OBJECT_NAME":"ONEWEB-0348","OBJECT_ID":"2021-083AD","EPOCH":"2026-06-17T19:05:15.058752","MEAN_MOTION":13.20770769,"ECCENTRICITY":0.0002474,"INCLINATION":87.9196,"RA_OF_ASC_NODE":274.3194,"ARG_OF_PERICENTER":95.9862,"MEAN_ANOMALY":264.1554,"EPHEMERIS_TYPE":0,"CLASSIFICATION_TYPE":"U","NORAD_CAT_ID":49213,"ELEMENT_SET_NO":999,"REV_AT_EPOCH":23689,"BSTAR":0.00011975,"MEAN_MOTION_DOT":6.2e-07,"MEAN_MOTION_DDOT":0.0},{"OBJECT_NAME":"ONEWEB-0350","OBJECT_ID":"2021-083AE","EPOCH":"2026-06-17T23:11:28.315680","MEAN_MOTION":13.12942631,"ECCENTRICITY":0.000211,"INCLINATION":87.8957,"RA_OF_ASC_NODE":320.0708,"ARG_OF_PERICENTER":99.3279,"MEAN_ANOMALY":260.8088,"EPHEMERIS_TYPE":0,"CLASSIFICATION_TYPE":"U","NORAD_CAT_ID":49214,"ELEMENT_SET_NO":999,"REV_AT_EPOCH":23103,"BSTAR":3.9760000000000006e-05,"MEAN_MOTION_DOT":2.7e-07,"MEAN_MOTION_DDOT":0.0},{"OBJECT_NAME":"ONEWEB-0351","OBJECT_ID":"2021-083AF","EPOCH":"2026-06-17T18:55:20.684640","MEAN_MOTION":13.20770762,"ECCENTRICITY":0.0002076,"INCLINATION":87.9197,"RA_OF_ASC_NODE":274.3195,"ARG_OF_PERICENTER":125.5465,"MEAN_ANOMALY":234.5863,"EPHEMERIS_TYPE":0,"CLASSIFICATION_TYPE":"U","NORAD_CAT_ID":49215,"ELEMENT_SET_NO":999,"REV_AT_EPOCH":23685,"BSTAR":0.00012414000000000001,"MEAN_MOTION_DOT":6.3e-07,"MEAN_MOTION_DDOT":0.0},{"OBJECT_NAME":"ONEWEB-0352","OBJECT_ID":"2021-083AG","EPOCH":"2026-06-17T22:32:25.456992","MEAN_MOTION":13.13470761,"ECCENTRICITY":0.000167,"INCLINATION":87.8954,"RA_OF_ASC_NODE":320.0828,"ARG_OF_PERICENTER":109.7823,"MEAN_ANOMALY":250.3486,"EPHEMERIS_TYPE":0,"CLASSIFICATION_TYPE":"U","NORAD_CAT_ID":49216,"ELEMENT_SET_NO":999,"REV_AT_EPOCH":23112,"BSTAR":0.0006738499999999999,"MEAN_MOTION_DOT":2.59e-06,"MEAN_MOTION_DDOT":0.0},{"OBJECT_NAME":"ONEWEB-0354","OBJECT_ID":"2021-083AH","EPOCH":"2026-06-18T06:28:52.567968","MEAN_MOTION":13.20772899,"ECCENTRICITY":0.0002406,"INCLINATION":87.9197,"RA_OF_ASC_NODE":274.2223,"ARG_OF_PERICENTER":100.0977,"MEAN_ANOMALY":260.0428,"EPHEMERIS_TYPE":0,"CLASSIFICATION_TYPE":"U","NORAD_CAT_ID":49217,"ELEMENT_SET_NO":999,"REV_AT_EPOCH":23695,"BSTAR":0.00011201,"MEAN_MOTION_DOT":5.9e-07,"MEAN_MOTION_DDOT":0.0},{"OBJECT_NAME":"ONEWEB-0355","OBJECT_ID":"2021-083AJ","EPOCH":"2026-06-17T23:14:03.878016","MEAN_MOTION":13.1346919,"ECCENTRICITY":0.0001895,"INCLINATION":87.8951,"RA_OF_ASC_NODE":320.078,"ARG_OF_PERICENTER":103.4532,"MEAN_ANOMALY":256.6808,"EPHEMERIS_TYPE":0,"CLASSIFICATION_TYPE":"U","NORAD_CAT_ID":49218,"ELEMENT_SET_NO":999,"REV_AT_EPOCH":23100,"BSTAR":-0.00020884,"MEAN_MOTION_DOT":-6.4e-07,"MEAN_MOTION_DDOT":0.0},{"OBJECT_NAME":"ONEWEB-0357","OBJECT_ID":"2021-083AK","EPOCH":"2026-06-17T19:29:29.364288","MEAN_MOTION":13.20772861,"ECCENTRICITY":0.0001945,"INCLINATION":87.9196,"RA_OF_ASC_NODE":274.3078,"ARG_OF_PERICENTER":106.4919,"MEAN_ANOMALY":253.6429,"EPHEMERIS_TYPE":0,"CLASSIFICATION_TYPE":"U","NORAD_CAT_ID":49219,"ELEMENT_SET_NO":999,"REV_AT_EPOCH":23689,"BSTAR":0.00010499,"MEAN_MOTION_DOT":5.6e-07,"MEAN_MOTION_DDOT":0.0},{"OBJECT_NAME":"ONEWEB-0332","OBJECT_ID":"2021-090A","EPOCH":"2026-06-17T19:51:42.064416","MEAN_MOTION":13.14501863,"ECCENTRICITY":0.0001713,"INCLINATION":87.8964,"RA_OF_ASC_NODE":289.5812,"ARG_OF_PERICENTER":102.0627,"MEAN_ANOMALY":258.0694,"EPHEMERIS_TYPE":0,"CLASSIFICATION_TYPE":"U","NORAD_CAT_ID":49279,"ELEMENT_SET_NO":999,"REV_AT_EPOCH":22766,"BSTAR":-0.00066174,"MEAN_MOTION_DOT":-2.33e-06,"MEAN_MOTION_DDOT":0.0},{"OBJECT_NAME":"ONEWEB-0347","OBJECT_ID":"2021-090B","EPOCH":"2026-06-17T19:14:56.999904","MEAN_MOTION":13.20771216,"ECCENTRICITY":0.0001683,"INCLINATION":87.9196,"RA_OF_ASC_NODE":274.3179,"ARG_OF_PERICENTER":101.0662,"MEAN_ANOMALY":259.0661,"EPHEMERIS_TYPE":0,"CLASSIFICATION_TYPE":"U","NORAD_CAT_ID":49280,"ELEMENT_SET_NO":999,"REV_AT_EPOCH":23112,"BSTAR":-8.3133e-06,"MEAN_MOTION_DOT":1e-07,"MEAN_MOTION_DDOT":0.0}]